{
  "type": "FeatureCollection",
  "name": "Complete_Master_Sampling_Sites_Reference_Final",
  "description": "Comprehensive Nipah virus surveillance database: Bat surveillance + Human spillover clusters",
  "metadata": {
    "created_date": "2026-04-08",
    "total_sites": 34,
    "studies_included": [
      "Balasubramanian_2023",
      "Eastern_India_2024",
      "Sudeep_2021",
      "Rahman_2026"
    ],
    "countries_covered": [
      "India",
      "Bangladesh"
    ],
    "coordinate_system": "WGS84 (EPSG:4326)",
    "geographic_scope": "South Asian Nipah virus endemic zone",
    "data_types": [
      "Bat surveillance",
      "Human spillover clusters"
    ],
    "temporal_range": "2001-2023",
    "quality_standard": "Verified coordinate provenance with documented precision"
  },
  "features": [
    {
      "type": "Feature",
      "properties": {
        "site_id": "BAL 001",
        "study": "Balasubramanian_2023",
        "location_name": "Mananthavady, Wayanad",
        "district": "Wayanad",
        "state": "Kerala",
        "country": "India",
        "collection_date": "February, 2023",
        "species": "Pteropus medius",
        "total_bats_sampled": "52",
        "males_sampled": "28",
        "females_sampled": "0",
        "nipah_rt_pcr_throat_swab": "0/52",
        "nipah_rt_pcr_rectal_swab": "0/52",
        "nipah_igg_elisa_results": "07/46",
        "coordinate_precision": "Village/Town level (±1-5km)",
        "data_source": "Balasubramanian et al. study (Roots.xlsx)",
        "sample_types": "Throat swab, Rectal swab, Spleen, Kidney, Serum",
        "test_methods": "Real-time RT-PCR, IgG ELISA",
        "notes": "Kerala surveillance with complete biological data"
      },
      "geometry": {
        "type": "Point",
        "coordinates": [
          76.004373,
          11.801364
        ]
      }
    },
    {
      "type": "Feature",
      "properties": {
        "site_id": "BAL 002",
        "study": "Balasubramanian_2023",
        "location_name": "Perambra, Kozhikode",
        "district": "Kozhikode",
        "state": "Kerala",
        "country": "India",
        "collection_date": NaN,
        "species": "Pteropus medius",
        "total_bats_sampled": "48",
        "males_sampled": "30",
        "females_sampled": "0",
        "nipah_rt_pcr_throat_swab": "0/48",
        "nipah_rt_pcr_rectal_swab": "0/48",
        "nipah_igg_elisa_results": "01/42",
        "coordinate_precision": "Village/Town level (±1-5km)",
        "data_source": "Balasubramanian et al. study (Roots.xlsx)",
        "sample_types": "Throat swab, Rectal swab, Spleen, Kidney, Serum",
        "test_methods": "Real-time RT-PCR, IgG ELISA",
        "notes": "Kerala surveillance with complete biological data"
      },
      "geometry": {
        "type": "Point",
        "coordinates": [
          75.75644919,
          11.5639505
        ]
      }
    },
    {
      "type": "Feature",
      "properties": {
        "site_id": "BAL 003",
        "study": "Balasubramanian_2023",
        "location_name": "Manassery, Kozhikode",
        "district": "Kozhikode",
        "state": "Kerala",
        "country": "India",
        "collection_date": "July, 2023",
        "species": "Pteropus medius",
        "total_bats_sampled": "41",
        "males_sampled": "21",
        "females_sampled": "0",
        "nipah_rt_pcr_throat_swab": "0/41",
        "nipah_rt_pcr_rectal_swab": "0/41",
        "nipah_igg_elisa_results": "16/39",
        "coordinate_precision": "Village/Town level (±1-5km)",
        "data_source": "Balasubramanian et al. study (Roots.xlsx)",
        "sample_types": "Throat swab, Rectal swab, Spleen, Kidney, Serum",
        "test_methods": "Real-time RT-PCR, IgG ELISA",
        "notes": "Kerala surveillance with complete biological data"
      },
      "geometry": {
        "type": "Point",
        "coordinates": [
          75.967991,
          11.321764
        ]
      }
    },
    {
      "type": "Feature",
      "properties": {
        "site_id": "BAL 004",
        "study": "Balasubramanian_2023",
        "location_name": "Perambra, Kozhikode",
        "district": "Kozhikode",
        "state": "Kerala",
        "country": "India",
        "collection_date": NaN,
        "species": "Pteropus medius",
        "total_bats_sampled": "21",
        "males_sampled": "13",
        "females_sampled": "0",
        "nipah_rt_pcr_throat_swab": "0/21",
        "nipah_rt_pcr_rectal_swab": "0/21",
        "nipah_igg_elisa_results": "02/19",
        "coordinate_precision": "Village/Town level (±1-5km)",
        "data_source": "Balasubramanian et al. study (Roots.xlsx)",
        "sample_types": "Throat swab, Rectal swab, Spleen, Kidney, Serum",
        "test_methods": "Real-time RT-PCR, IgG ELISA",
        "notes": "Kerala surveillance with complete biological data"
      },
      "geometry": {
        "type": "Point",
        "coordinates": [
          75.75644919,
          11.5639505
        ]
      }
    },
    {
      "type": "Feature",
      "properties": {
        "site_id": "BAL 005",
        "study": "Balasubramanian_2023",
        "location_name": "Kuttiady, Kozhikode",
        "district": "Kozhikode",
        "state": "Kerala",
        "country": "India",
        "collection_date": NaN,
        "species": "Pteropus medius",
        "total_bats_sampled": "16",
        "males_sampled": "10",
        "females_sampled": "0",
        "nipah_rt_pcr_throat_swab": "0/16",
        "nipah_rt_pcr_rectal_swab": "0/16",
        "nipah_igg_elisa_results": "0/16",
        "coordinate_precision": "Village/Town level (±1-5km)",
        "data_source": "Balasubramanian et al. study (Roots.xlsx)",
        "sample_types": "Throat swab, Rectal swab, Spleen, Kidney, Serum",
        "test_methods": "Real-time RT-PCR, IgG ELISA",
        "notes": "Kerala surveillance with complete biological data"
      },
      "geometry": {
        "type": "Point",
        "coordinates": [
          75.5918774,
          11.6016207
        ]
      }
    },
    {
      "type": "Feature",
      "properties": {
        "site_id": "BAL 006",
        "study": "Balasubramanian_2023",
        "location_name": "Kallad, Kozhikode",
        "district": "Kozhikode",
        "state": "Kerala",
        "country": "India",
        "collection_date": "September, 2023",
        "species": "Pteropus medius",
        "total_bats_sampled": "11",
        "males_sampled": "4",
        "females_sampled": "0",
        "nipah_rt_pcr_throat_swab": "0/11",
        "nipah_rt_pcr_rectal_swab": "0/11",
        "nipah_igg_elisa_results": "1/11",
        "coordinate_precision": "Village/Town level (±1-5km)",
        "data_source": "Balasubramanian et al. study (Roots.xlsx)",
        "sample_types": "Throat swab, Rectal swab, Spleen, Kidney, Serum",
        "test_methods": "Real-time RT-PCR, IgG ELISA",
        "notes": "Kerala surveillance with complete biological data"
      },
      "geometry": {
        "type": "Point",
        "coordinates": [
          75.7804,
          11.2587
        ]
      }
    },
    {
      "type": "Feature",
      "properties": {
        "site_id": "BAL 007",
        "study": "Balasubramanian_2023",
        "location_name": "Thaleekkara, Kozhikode",
        "district": "Kozhikode",
        "state": "Kerala",
        "country": "India",
        "collection_date": NaN,
        "species": "Pteropus medius",
        "total_bats_sampled": "6",
        "males_sampled": "2",
        "females_sampled": "0",
        "nipah_rt_pcr_throat_swab": "0/6",
        "nipah_rt_pcr_rectal_swab": "0/6",
        "nipah_igg_elisa_results": "2/6",
        "coordinate_precision": "Village/Town level (±1-5km)",
        "data_source": "Balasubramanian et al. study (Roots.xlsx)",
        "sample_types": "Throat swab, Rectal swab, Spleen, Kidney, Serum",
        "test_methods": "Real-time RT-PCR, IgG ELISA",
        "notes": "Kerala surveillance with complete biological data"
      },
      "geometry": {
        "type": "Point",
        "coordinates": [
          75.7804,
          11.2587
        ]
      }
    },
    {
      "type": "Feature",
      "properties": {
        "site_id": "BAL 008",
        "study": "Balasubramanian_2023",
        "location_name": "Kuttiady, Kozhikode",
        "district": "Kozhikode",
        "state": "Kerala",
        "country": "India",
        "collection_date": NaN,
        "species": "Pteropus medius",
        "total_bats_sampled": "15",
        "males_sampled": "9",
        "females_sampled": "6.0",
        "nipah_rt_pcr_throat_swab": "0/15",
        "nipah_rt_pcr_rectal_swab": "0/15",
        "nipah_igg_elisa_results": "1/15",
        "coordinate_precision": "Village/Town level (±1-5km)",
        "data_source": "Balasubramanian et al. study (Roots.xlsx)",
        "sample_types": "Throat swab, Rectal swab, Spleen, Kidney, Serum",
        "test_methods": "Real-time RT-PCR, IgG ELISA",
        "notes": "Kerala surveillance with complete biological data"
      },
      "geometry": {
        "type": "Point",
        "coordinates": [
          75.5918774,
          11.6016207
        ]
      }
    },
    {
      "type": "Feature",
      "properties": {
        "site_id": "BAL 009",
        "study": "Balasubramanian_2023",
        "location_name": "Perambra, Kozhikode",
        "district": "Kozhikode",
        "state": "Kerala",
        "country": "India",
        "collection_date": NaN,
        "species": "Pteropus medius",
        "total_bats_sampled": "32",
        "males_sampled": "20",
        "females_sampled": "0",
        "nipah_rt_pcr_throat_swab": "0/32",
        "nipah_rt_pcr_rectal_swab": "0/32",
        "nipah_igg_elisa_results": "14/31",
        "coordinate_precision": "Village/Town level (±1-5km)",
        "data_source": "Balasubramanian et al. study (Roots.xlsx)",
        "sample_types": "Throat swab, Rectal swab, Spleen, Kidney, Serum",
        "test_methods": "Real-time RT-PCR, IgG ELISA",
        "notes": "Kerala surveillance with complete biological data"
      },
      "geometry": {
        "type": "Point",
        "coordinates": [
          75.75644919,
          11.5639505
        ]
      }
    },
    {
      "type": "Feature",
      "properties": {
        "site_id": "BAL 010",
        "study": "Balasubramanian_2023",
        "location_name": "Sulthan Bathery, Wayanad",
        "district": "Wayanad",
        "state": "Kerala",
        "country": "India",
        "collection_date": NaN,
        "species": "Pteropus medius",
        "total_bats_sampled": "22",
        "males_sampled": "13",
        "females_sampled": "0",
        "nipah_rt_pcr_throat_swab": "0/22",
        "nipah_rt_pcr_rectal_swab": "0/22",
        "nipah_igg_elisa_results": "8/22",
        "coordinate_precision": "Village/Town level (±1-5km)",
        "data_source": "Balasubramanian et al. study (Roots.xlsx)",
        "sample_types": "Throat swab, Rectal swab, Spleen, Kidney, Serum",
        "test_methods": "Real-time RT-PCR, IgG ELISA",
        "notes": "Kerala surveillance with complete biological data"
      },
      "geometry": {
        "type": "Point",
        "coordinates": [
          76.28,
          11.67
        ]
      }
    },
    {
      "type": "Feature",
      "properties": {
        "site_id": "BAL 011",
        "study": "Balasubramanian_2023",
        "location_name": "Mananthavady, Wayanad",
        "district": "Wayanad",
        "state": "Kerala",
        "country": "India",
        "collection_date": NaN,
        "species": "Pteropus medius",
        "total_bats_sampled": "25",
        "males_sampled": "19",
        "females_sampled": "6.0",
        "nipah_rt_pcr_throat_swab": "0/25",
        "nipah_rt_pcr_rectal_swab": "0/25",
        "nipah_igg_elisa_results": "5/25",
        "coordinate_precision": "Village/Town level (±1-5km)",
        "data_source": "Balasubramanian et al. study (Roots.xlsx)",
        "sample_types": "Throat swab, Rectal swab, Spleen, Kidney, Serum",
        "test_methods": "Real-time RT-PCR, IgG ELISA",
        "notes": "Kerala surveillance with complete biological data"
      },
      "geometry": {
        "type": "Point",
        "coordinates": [
          76.004373,
          11.801364
        ]
      }
    },
    {
      "type": "Feature",
      "properties": {
        "site_id": "NIP2024 001",
        "study": "Eastern_India_2024",
        "location_name": "Shillong, Meghalaya",
        "district": "Meghalaya",
        "state": "Meghalaya",
        "country": "India",
        "collection_date": "November 2022",
        "species": "Pteropus medius",
        "total_bats_sampled": "43",
        "males_sampled": "25",
        "females_sampled": "18",
        "nipah_rt_pcr_throat_swab": "43 swabs collected",
        "nipah_rt_pcr_rectal_swab": "43 swabs collected",
        "nipah_igg_elisa_results": "34 blood samples",
        "coordinate_precision": "City level (±1-2km accuracy)",
        "data_source": "2024 Frontiers in Microbiology study",
        "sample_types": "Throat swabs, Rectal swabs, Blood/Serum, Bat specimens",
        "test_methods": "Sample collection (testing results not provided)",
        "notes": "Multi-state survey. Altitude: 1496m. Multi-state surveillance covering 4 locations in eastern/northeastern India"
      },
      "geometry": {
        "type": "Point",
        "coordinates": [
          91.88313,
          25.56892
        ]
      }
    },
    {
      "type": "Feature",
      "properties": {
        "site_id": "NIP2024 002",
        "study": "Eastern_India_2024",
        "location_name": "Guwahati, Assam",
        "district": "Assam",
        "state": "Assam",
        "country": "India",
        "collection_date": "November, 2022",
        "species": "Pteropus medius",
        "total_bats_sampled": "53",
        "males_sampled": "29",
        "females_sampled": "24",
        "nipah_rt_pcr_throat_swab": "53 swabs collected",
        "nipah_rt_pcr_rectal_swab": "53 swabs collected",
        "nipah_igg_elisa_results": "30 blood samples",
        "coordinate_precision": "City level (±1-2km accuracy)",
        "data_source": "2024 Frontiers in Microbiology study",
        "sample_types": "Throat swabs, Rectal swabs, Blood/Serum, Bat specimens",
        "test_methods": "Sample collection (testing results not provided)",
        "notes": "Multi-state survey. Altitude: 50m. Multi-state surveillance covering 4 locations in eastern/northeastern India"
      },
      "geometry": {
        "type": "Point",
        "coordinates": [
          91.736237,
          26.144517
        ]
      }
    },
    {
      "type": "Feature",
      "properties": {
        "site_id": "NIP2024 003",
        "study": "Eastern_India_2024",
        "location_name": "Binnaguri, West Bengal",
        "district": "West Bengal",
        "state": "West Bengal",
        "country": "India",
        "collection_date": "May, 2023",
        "species": "Pteropus medius",
        "total_bats_sampled": "60",
        "males_sampled": "33",
        "females_sampled": "26",
        "nipah_rt_pcr_throat_swab": "60 swabs collected",
        "nipah_rt_pcr_rectal_swab": "60 swabs collected",
        "nipah_igg_elisa_results": "54 blood samples",
        "coordinate_precision": "City level (±1-2km accuracy)",
        "data_source": "2024 Frontiers in Microbiology study",
        "sample_types": "Throat swabs, Rectal swabs, Blood/Serum, Bat specimens",
        "test_methods": "Sample collection (testing results not provided)",
        "notes": "Multi-state survey. Altitude: 216m. Multi-state surveillance covering 4 locations in eastern/northeastern India"
      },
      "geometry": {
        "type": "Point",
        "coordinates": [
          89.057884,
          26.749931
        ]
      }
    },
    {
      "type": "Feature",
      "properties": {
        "site_id": "SUD2021 001",
        "study": "Sudeep_2021",
        "location_name": "Near River Thodupuzha",
        "district": "Idukki",
        "state": "Kerala",
        "country": "India",
        "collection_date": "2021",
        "species": "Pteropus medius",
        "total_bats_sampled": "54",
        "males_sampled": null,
        "females_sampled": null,
        "nipah_rt_pcr_throat_swab": "0/54 positive",
        "nipah_rt_pcr_rectal_swab": "1/54 positive",
        "nipah_igg_elisa_results": "4/23 positive (17.4%)",
        "coordinate_precision": "Town/Village level (±1-3km accuracy)",
        "data_source": "Sudeep et al. 2021 study",
        "sample_types": "Throat swabs, Rectal swabs, Visceral organs, Serum",
        "test_methods": "Real-time RT-PCR, anti-NiV IgG ELISA",
        "notes": "Site 1. River valley location near Thodupuzha town. Altitude: 38m. RT-PCR: Total: 3/133 positive"
      },
      "geometry": {
        "type": "Point",
        "coordinates": [
          76.7134,
          9.8977
        ]
      }
    },
    {
      "type": "Feature",
      "properties": {
        "site_id": "SUD2021 002",
        "study": "Sudeep_2021",
        "location_name": "Muttom, Thodupuzha",
        "district": "Idukki",
        "state": "Kerala",
        "country": "India",
        "collection_date": "2021",
        "species": "Pteropus medius",
        "total_bats_sampled": "8",
        "males_sampled": null,
        "females_sampled": null,
        "nipah_rt_pcr_throat_swab": "0/8 positive",
        "nipah_rt_pcr_rectal_swab": "0/8 positive",
        "nipah_igg_elisa_results": "0/8 positive (0.0%)",
        "coordinate_precision": "Town/Village level (±1-3km accuracy)",
        "data_source": "Sudeep et al. 2021 study",
        "sample_types": "Throat swabs, Rectal swabs, Visceral organs, Serum",
        "test_methods": "Real-time RT-PCR, anti-NiV IgG ELISA",
        "notes": "Site 2. Village near Thodupuzha. Altitude: 40m. RT-PCR: Total: 0/24 positive"
      },
      "geometry": {
        "type": "Point",
        "coordinates": [
          76.7081,
          9.8937
        ]
      }
    },
    {
      "type": "Feature",
      "properties": {
        "site_id": "SUD2021 003",
        "study": "Sudeep_2021",
        "location_name": "Aluva",
        "district": "Ernakulam",
        "state": "Kerala",
        "country": "India",
        "collection_date": "2021",
        "species": "Pteropus medius",
        "total_bats_sampled": "29",
        "males_sampled": null,
        "females_sampled": null,
        "nipah_rt_pcr_throat_swab": "0/29 positive",
        "nipah_rt_pcr_rectal_swab": "0/29 positive",
        "nipah_igg_elisa_results": "6/19 positive (31.6%)",
        "coordinate_precision": "Town/Village level (±1-3km accuracy)",
        "data_source": "Sudeep et al. 2021 study",
        "sample_types": "Throat swabs, Rectal swabs, Visceral organs, Serum",
        "test_methods": "Real-time RT-PCR, anti-NiV IgG ELISA",
        "notes": "Site 3. Industrial town on Periyar River. Altitude: 13m. RT-PCR: Total: 1/78 positive"
      },
      "geometry": {
        "type": "Point",
        "coordinates": [
          76.350693,
          10.107796
        ]
      }
    },
    {
      "type": "Feature",
      "properties": {
        "site_id": "SUD2021 004",
        "study": "Sudeep_2021",
        "location_name": "Aluva",
        "district": "Ernakulam",
        "state": "Kerala",
        "country": "India",
        "collection_date": "2021",
        "species": "Rousettus",
        "total_bats_sampled": "32",
        "males_sampled": null,
        "females_sampled": null,
        "nipah_rt_pcr_throat_swab": "0/32 positive",
        "nipah_rt_pcr_rectal_swab": "0/32 positive",
        "nipah_igg_elisa_results": "0/20 positive (0.0%)",
        "coordinate_precision": "Town/Village level (±1-3km accuracy)",
        "data_source": "Sudeep et al. 2021 study",
        "sample_types": "Throat swabs, Rectal swabs, Visceral organs, Serum",
        "test_methods": "Real-time RT-PCR, anti-NiV IgG ELISA",
        "notes": "Site 3. Industrial town on Periyar River. Altitude: 13m. RT-PCR: Total: 0/95 positive"
      },
      "geometry": {
        "type": "Point",
        "coordinates": [
          76.350693,
          10.107796
        ]
      }
    },
    {
      "type": "Feature",
      "properties": {
        "site_id": "SUD2021 005",
        "study": "Sudeep_2021",
        "location_name": "Thuruthipuram, Thekekkara Panchayat",
        "district": "Ernakulam",
        "state": "Kerala",
        "country": "India",
        "collection_date": "2021",
        "species": "Pteropus medius",
        "total_bats_sampled": "4",
        "males_sampled": null,
        "females_sampled": null,
        "nipah_rt_pcr_throat_swab": "0/4 positive",
        "nipah_rt_pcr_rectal_swab": "0/4 positive",
        "nipah_igg_elisa_results": "1/4 positive (25.0%)",
        "coordinate_precision": "Town/Village level (±1-3km accuracy)",
        "data_source": "Sudeep et al. 2021 study",
        "sample_types": "Throat swabs, Rectal swabs, Visceral organs, Serum",
        "test_methods": "Real-time RT-PCR, anti-NiV IgG ELISA",
        "notes": "Site 4. Village in Ernakulam district. Altitude: 15m. RT-PCR: Total: 0/12 positive"
      },
      "geometry": {
        "type": "Point",
        "coordinates": [
          76.5,
          10.0
        ]
      }
    },
    {
      "type": "Feature",
      "properties": {
        "site_id": "SUD2021 006",
        "study": "Sudeep_2021",
        "location_name": "Vavakkad, Paravoor, Thekekkara Panchayat",
        "district": "Ernakulam",
        "state": "Kerala",
        "country": "India",
        "collection_date": "2021",
        "species": "Pteropus medius",
        "total_bats_sampled": "14",
        "males_sampled": null,
        "females_sampled": null,
        "nipah_rt_pcr_throat_swab": "0/14 positive",
        "nipah_rt_pcr_rectal_swab": "0/14 positive",
        "nipah_igg_elisa_results": "1/4 positive (25.0%)",
        "coordinate_precision": "Town/Village level (±1-3km accuracy)",
        "data_source": "Sudeep et al. 2021 study",
        "sample_types": "Throat swabs, Rectal swabs, Visceral organs, Serum",
        "test_methods": "Real-time RT-PCR, anti-NiV IgG ELISA",
        "notes": "Site 5. Coastal area near North Paravoor. Altitude: 10m. RT-PCR: Total: 0/32 positive"
      },
      "geometry": {
        "type": "Point",
        "coordinates": [
          76.23053,
          10.140487
        ]
      }
    },
    {
      "type": "Feature",
      "properties": {
        "site_id": "RAH2026 001",
        "study": "Rahman_2026",
        "location_name": "Faridpur",
        "district": "Faridpur",
        "state": "Faridpur",
        "country": "Bangladesh",
        "collection_date": "2001–2005",
        "species": "Human cases (Nipah virus spillover events)",
        "total_bats_sampled": "N/A (epidemiological study)",
        "males_sampled": null,
        "females_sampled": null,
        "nipah_rt_pcr_throat_swab": "N/A (human case clusters)",
        "nipah_rt_pcr_rectal_swab": "N/A (human case clusters)",
        "nipah_igg_elisa_results": "N/A (human case clusters)",
        "coordinate_precision": "Cluster centroid ±19.5 km radius",
        "data_source": "Rahman et al. 2026 - Bangladesh Nipah spillover cluster analysis",
        "sample_types": "Human case epidemiological data",
        "test_methods": "Spatiotemporal cluster analysis",
        "notes": "NiV-NiV-BD Cluster 1. Coverage: 1196 sq km. O/E ratio: 1.38. Radius: 19.5 km"
      },
      "geometry": {
        "type": "Point",
        "coordinates": [
          89.839414,
          23.600252
        ]
      }
    },
    {
      "type": "Feature",
      "properties": {
        "site_id": "RAH2026 002",
        "study": "Rahman_2026",
        "location_name": "Baliakandi, Rajbari",
        "district": "Rajbari",
        "state": "Rajbari",
        "country": "Bangladesh",
        "collection_date": "2006–2010",
        "species": "Human cases (Nipah virus spillover events)",
        "total_bats_sampled": "N/A (epidemiological study)",
        "males_sampled": null,
        "females_sampled": null,
        "nipah_rt_pcr_throat_swab": "N/A (human case clusters)",
        "nipah_rt_pcr_rectal_swab": "N/A (human case clusters)",
        "nipah_igg_elisa_results": "N/A (human case clusters)",
        "coordinate_precision": "Cluster centroid ±15.04 km radius",
        "data_source": "Rahman et al. 2026 - Bangladesh Nipah spillover cluster analysis",
        "sample_types": "Human case epidemiological data",
        "test_methods": "Spatiotemporal cluster analysis",
        "notes": "NiV-NiV-BD Cluster 1. Coverage: 711 sq km. O/E ratio: 1.83. Radius: 15.04 km"
      },
      "geometry": {
        "type": "Point",
        "coordinates": [
          89.522777,
          23.683661
        ]
      }
    },
    {
      "type": "Feature",
      "properties": {
        "site_id": "RAH2026 003",
        "study": "Rahman_2026",
        "location_name": "Bhanga, Faridpur",
        "district": "Faridpur",
        "state": "Faridpur",
        "country": "Bangladesh",
        "collection_date": "2006–2010",
        "species": "Human cases (Nipah virus spillover events)",
        "total_bats_sampled": "N/A (epidemiological study)",
        "males_sampled": null,
        "females_sampled": null,
        "nipah_rt_pcr_throat_swab": "N/A (human case clusters)",
        "nipah_rt_pcr_rectal_swab": "N/A (human case clusters)",
        "nipah_igg_elisa_results": "N/A (human case clusters)",
        "coordinate_precision": "Cluster centroid ±33.55 km radius",
        "data_source": "Rahman et al. 2026 - Bangladesh Nipah spillover cluster analysis",
        "sample_types": "Human case epidemiological data",
        "test_methods": "Spatiotemporal cluster analysis",
        "notes": "NiV-NiV-BD Cluster 2. Coverage: 3536 sq km. O/E ratio: 2.06. Radius: 33.55 km"
      },
      "geometry": {
        "type": "Point",
        "coordinates": [
          89.91624,
          23.306638
        ]
      }
    },
    {
      "type": "Feature",
      "properties": {
        "site_id": "RAH2026 004",
        "study": "Rahman_2026",
        "location_name": "Lalmonirhat",
        "district": "Lalmonirhat",
        "state": "Lalmonirhat",
        "country": "Bangladesh",
        "collection_date": "2011–2015",
        "species": "Human cases (Nipah virus spillover events)",
        "total_bats_sampled": "N/A (epidemiological study)",
        "males_sampled": null,
        "females_sampled": null,
        "nipah_rt_pcr_throat_swab": "N/A (human case clusters)",
        "nipah_rt_pcr_rectal_swab": "N/A (human case clusters)",
        "nipah_igg_elisa_results": "N/A (human case clusters)",
        "coordinate_precision": "Cluster centroid ±116.09 km radius",
        "data_source": "Rahman et al. 2026 - Bangladesh Nipah spillover cluster analysis",
        "sample_types": "Human case epidemiological data",
        "test_methods": "Spatiotemporal cluster analysis",
        "notes": "NiV-NiV-BD Cluster 1. Coverage: 42339 sq km. O/E ratio: 1.18. Radius: 116.09 km"
      },
      "geometry": {
        "type": "Point",
        "coordinates": [
          89.128883,
          26.142915
        ]
      }
    },
    {
      "type": "Feature",
      "properties": {
        "site_id": "RAH2026 005",
        "study": "Rahman_2026",
        "location_name": "Saltha, Faridpur",
        "district": "Faridpur",
        "state": "Faridpur",
        "country": "Bangladesh",
        "collection_date": "2011–2015",
        "species": "Human cases (Nipah virus spillover events)",
        "total_bats_sampled": "N/A (epidemiological study)",
        "males_sampled": null,
        "females_sampled": null,
        "nipah_rt_pcr_throat_swab": "N/A (human case clusters)",
        "nipah_rt_pcr_rectal_swab": "N/A (human case clusters)",
        "nipah_igg_elisa_results": "N/A (human case clusters)",
        "coordinate_precision": "Cluster centroid ±14.02 km radius",
        "data_source": "Rahman et al. 2026 - Bangladesh Nipah spillover cluster analysis",
        "sample_types": "Human case epidemiological data",
        "test_methods": "Spatiotemporal cluster analysis",
        "notes": "NiV-NiV-BD Cluster 1. Coverage: 618 sq km. O/E ratio: 16.67. Radius: 14.02 km"
      },
      "geometry": {
        "type": "Point",
        "coordinates": [
          89.791979,
          23.438019
        ]
      }
    },
    {
      "type": "Feature",
      "properties": {
        "site_id": "RAH2026 006",
        "study": "Rahman_2026",
        "location_name": "Manikganj",
        "district": "Manikganj",
        "state": "Manikganj",
        "country": "Bangladesh",
        "collection_date": "2011–2015",
        "species": "Human cases (Nipah virus spillover events)",
        "total_bats_sampled": "N/A (epidemiological study)",
        "males_sampled": null,
        "females_sampled": null,
        "nipah_rt_pcr_throat_swab": "N/A (human case clusters)",
        "nipah_rt_pcr_rectal_swab": "N/A (human case clusters)",
        "nipah_igg_elisa_results": "N/A (human case clusters)",
        "coordinate_precision": "Cluster centroid ±12.09 km radius",
        "data_source": "Rahman et al. 2026 - Bangladesh Nipah spillover cluster analysis",
        "sample_types": "Human case epidemiological data",
        "test_methods": "Spatiotemporal cluster analysis",
        "notes": "NiV-NiV-BD Cluster 1. Coverage: 459 sq km. O/E ratio: 4.9. Radius: 12.09 km"
      },
      "geometry": {
        "type": "Point",
        "coordinates": [
          90.004613,
          23.861754
        ]
      }
    },
    {
      "type": "Feature",
      "properties": {
        "site_id": "RAH2026 007",
        "study": "Rahman_2026",
        "location_name": "Bochaganj, Dinajpur",
        "district": "Dinajpur",
        "state": "Dinajpur",
        "country": "Bangladesh",
        "collection_date": "2011–2015",
        "species": "Human cases (Nipah virus spillover events)",
        "total_bats_sampled": "N/A (epidemiological study)",
        "males_sampled": null,
        "females_sampled": null,
        "nipah_rt_pcr_throat_swab": "N/A (human case clusters)",
        "nipah_rt_pcr_rectal_swab": "N/A (human case clusters)",
        "nipah_igg_elisa_results": "N/A (human case clusters)",
        "coordinate_precision": "Cluster centroid ±83.9 km radius",
        "data_source": "Rahman et al. 2026 - Bangladesh Nipah spillover cluster analysis",
        "sample_types": "Human case epidemiological data",
        "test_methods": "Spatiotemporal cluster analysis",
        "notes": "NiV-NiV-BD Cluster 2. Coverage: 22114 sq km. O/E ratio: 2.1. Radius: 83.9 km"
      },
      "geometry": {
        "type": "Point",
        "coordinates": [
          88.537536,
          25.769267
        ]
      }
    },
    {
      "type": "Feature",
      "properties": {
        "site_id": "RAH2026 008",
        "study": "Rahman_2026",
        "location_name": "Khetlal, Joypurhat",
        "district": "Joypurhat",
        "state": "Joypurhat",
        "country": "Bangladesh",
        "collection_date": "2011–2015",
        "species": "Human cases (Nipah virus spillover events)",
        "total_bats_sampled": "N/A (epidemiological study)",
        "males_sampled": null,
        "females_sampled": null,
        "nipah_rt_pcr_throat_swab": "N/A (human case clusters)",
        "nipah_rt_pcr_rectal_swab": "N/A (human case clusters)",
        "nipah_igg_elisa_results": "N/A (human case clusters)",
        "coordinate_precision": "Cluster centroid ±20.88 km radius",
        "data_source": "Rahman et al. 2026 - Bangladesh Nipah spillover cluster analysis",
        "sample_types": "Human case epidemiological data",
        "test_methods": "Spatiotemporal cluster analysis",
        "notes": "NiV-NiV-BD Cluster 2. Coverage: 1370 sq km. O/E ratio: 2.44. Radius: 20.88 km"
      },
      "geometry": {
        "type": "Point",
        "coordinates": [
          89.108875,
          25.034183
        ]
      }
    },
    {
      "type": "Feature",
      "properties": {
        "site_id": "RAH2026 009",
        "study": "Rahman_2026",
        "location_name": "Shibchar, Madaripur",
        "district": "Madaripur",
        "state": "Madaripur",
        "country": "Bangladesh",
        "collection_date": "2011–2015",
        "species": "Human cases (Nipah virus spillover events)",
        "total_bats_sampled": "N/A (epidemiological study)",
        "males_sampled": null,
        "females_sampled": null,
        "nipah_rt_pcr_throat_swab": "N/A (human case clusters)",
        "nipah_rt_pcr_rectal_swab": "N/A (human case clusters)",
        "nipah_igg_elisa_results": "N/A (human case clusters)",
        "coordinate_precision": "Cluster centroid ±7.19 km radius",
        "data_source": "Rahman et al. 2026 - Bangladesh Nipah spillover cluster analysis",
        "sample_types": "Human case epidemiological data",
        "test_methods": "Spatiotemporal cluster analysis",
        "notes": "NiV-NiV-BD Cluster 2. Coverage: 162 sq km. O/E ratio: 16.17. Radius: 7.19 km"
      },
      "geometry": {
        "type": "Point",
        "coordinates": [
          90.17355,
          23.340685
        ]
      }
    },
    {
      "type": "Feature",
      "properties": {
        "site_id": "RAH2026 010",
        "study": "Rahman_2026",
        "location_name": "Bhangura, Pabna",
        "district": "Pabna",
        "state": "Pabna",
        "country": "Bangladesh",
        "collection_date": "2016–2020",
        "species": "Human cases (Nipah virus spillover events)",
        "total_bats_sampled": "N/A (epidemiological study)",
        "males_sampled": null,
        "females_sampled": null,
        "nipah_rt_pcr_throat_swab": "N/A (human case clusters)",
        "nipah_rt_pcr_rectal_swab": "N/A (human case clusters)",
        "nipah_igg_elisa_results": "N/A (human case clusters)",
        "coordinate_precision": "Cluster centroid ±9.79 km radius",
        "data_source": "Rahman et al. 2026 - Bangladesh Nipah spillover cluster analysis",
        "sample_types": "Human case epidemiological data",
        "test_methods": "Spatiotemporal cluster analysis",
        "notes": "NiV-NiV-BD Cluster 1. Coverage: 301 sq km. O/E ratio: 2.33. Radius: 9.79 km"
      },
      "geometry": {
        "type": "Point",
        "coordinates": [
          89.254105,
          24.076236
        ]
      }
    },
    {
      "type": "Feature",
      "properties": {
        "site_id": "RAH2026 011",
        "study": "Rahman_2026",
        "location_name": "Nagarkanda, Faridpur",
        "district": "Faridpur",
        "state": "Faridpur",
        "country": "Bangladesh",
        "collection_date": "2016–2020",
        "species": "Human cases (Nipah virus spillover events)",
        "total_bats_sampled": "N/A (epidemiological study)",
        "males_sampled": null,
        "females_sampled": null,
        "nipah_rt_pcr_throat_swab": "N/A (human case clusters)",
        "nipah_rt_pcr_rectal_swab": "N/A (human case clusters)",
        "nipah_igg_elisa_results": "N/A (human case clusters)",
        "coordinate_precision": "Cluster centroid ±6.54 km radius",
        "data_source": "Rahman et al. 2026 - Bangladesh Nipah spillover cluster analysis",
        "sample_types": "Human case epidemiological data",
        "test_methods": "Spatiotemporal cluster analysis",
        "notes": "NiV-NiV-BD Cluster 1. Coverage: 134 sq km. O/E ratio: 3.5. Radius: 6.54 km"
      },
      "geometry": {
        "type": "Point",
        "coordinates": [
          89.9066,
          23.4538
        ]
      }
    },
    {
      "type": "Feature",
      "properties": {
        "site_id": "RAH2026 012",
        "study": "Rahman_2026",
        "location_name": "Nagarkanda, Faridpur",
        "district": "Faridpur",
        "state": "Faridpur",
        "country": "Bangladesh",
        "collection_date": "2016–2020",
        "species": "Human cases (Nipah virus spillover events)",
        "total_bats_sampled": "N/A (epidemiological study)",
        "males_sampled": null,
        "females_sampled": null,
        "nipah_rt_pcr_throat_swab": "N/A (human case clusters)",
        "nipah_rt_pcr_rectal_swab": "N/A (human case clusters)",
        "nipah_igg_elisa_results": "N/A (human case clusters)",
        "coordinate_precision": "Cluster centroid ±8.98 km radius",
        "data_source": "Rahman et al. 2026 - Bangladesh Nipah spillover cluster analysis",
        "sample_types": "Human case epidemiological data",
        "test_methods": "Spatiotemporal cluster analysis",
        "notes": "NiV-NiV-BD Cluster 2. Coverage: 253 sq km. O/E ratio: 1.67. Radius: 8.98 km"
      },
      "geometry": {
        "type": "Point",
        "coordinates": [
          89.9066,
          23.4538
        ]
      }
    },
    {
      "type": "Feature",
      "properties": {
        "site_id": "RAH2026 013",
        "study": "Rahman_2026",
        "location_name": "Rajshahi",
        "district": "Rajshahi",
        "state": "Rajshahi",
        "country": "Bangladesh",
        "collection_date": "2016–2020",
        "species": "Human cases (Nipah virus spillover events)",
        "total_bats_sampled": "N/A (epidemiological study)",
        "males_sampled": null,
        "females_sampled": null,
        "nipah_rt_pcr_throat_swab": "N/A (human case clusters)",
        "nipah_rt_pcr_rectal_swab": "N/A (human case clusters)",
        "nipah_igg_elisa_results": "N/A (human case clusters)",
        "coordinate_precision": "Cluster centroid ±79.91 km radius",
        "data_source": "Rahman et al. 2026 - Bangladesh Nipah spillover cluster analysis",
        "sample_types": "Human case epidemiological data",
        "test_methods": "Spatiotemporal cluster analysis",
        "notes": "NiV-NiV-BD Cluster 2. Coverage: 20061 sq km. O/E ratio: 1.9. Radius: 79.91 km"
      },
      "geometry": {
        "type": "Point",
        "coordinates": [
          88.677671,
          24.387345
        ]
      }
    },
    {
      "type": "Feature",
      "properties": {
        "site_id": "RAH2026 014",
        "study": "Rahman_2026",
        "location_name": "Patnitala, Naogaon",
        "district": "Naogaon",
        "state": "Naogaon",
        "country": "Bangladesh",
        "collection_date": "2021–2023",
        "species": "Human cases (Nipah virus spillover events)",
        "total_bats_sampled": "N/A (epidemiological study)",
        "males_sampled": null,
        "females_sampled": null,
        "nipah_rt_pcr_throat_swab": "N/A (human case clusters)",
        "nipah_rt_pcr_rectal_swab": "N/A (human case clusters)",
        "nipah_igg_elisa_results": "N/A (human case clusters)",
        "coordinate_precision": "Cluster centroid ±66.01 km radius",
        "data_source": "Rahman et al. 2026 - Bangladesh Nipah spillover cluster analysis",
        "sample_types": "Human case epidemiological data",
        "test_methods": "Spatiotemporal cluster analysis",
        "notes": "NiV-NiV-BD Cluster 2. Coverage: 23235 sq km. O/E ratio: 2.67. Radius: 66.01 km"
      },
      "geometry": {
        "type": "Point",
        "coordinates": [
          88.7325,
          25.0612
        ]
      }
    }
  ]
}